[{"OBJECT_NAME":"KUIPER-00268","OBJECT_ID":"2026-030AC","EPOCH":"2026-03-02T19:03:58.999104","MEAN_MOTION":15.35667063,"ECCENTRICITY":0.0002173,"INCLINATION":51.8837,"RA_OF_ASC_NODE":252.361,"ARG_OF_PERICENTER":31.4192,"MEAN_ANOMALY":328.6924,"EPHEMERIS_TYPE":0,"CLASSIFICATION_TYPE":"U","NORAD_CAT_ID":67790,"ELEMENT_SET_NO":999,"REV_AT_EPOCH":403,"BSTAR":0.00091692,"MEAN_MOTION_DOT":0.00032044,"MEAN_MOTION_DDOT":0},{"OBJECT_NAME":"KUIPER-00270","OBJECT_ID":"2026-030AD","EPOCH":"2026-03-02T17:54:07.709184","MEAN_MOTION":15.34314518,"ECCENTRICITY":0.0009948,"INCLINATION":51.8794,"RA_OF_ASC_NODE":252.7739,"ARG_OF_PERICENTER":37.1014,"MEAN_ANOMALY":323.0657,"EPHEMERIS_TYPE":0,"CLASSIFICATION_TYPE":"U","NORAD_CAT_ID":67791,"ELEMENT_SET_NO":999,"REV_AT_EPOCH":402,"BSTAR":0.00068666,"MEAN_MOTION_DOT":0.00022882,"MEAN_MOTION_DDOT":0},{"OBJECT_NAME":"KUIPER-00274","OBJECT_ID":"2026-030AE","EPOCH":"2026-03-02T18:24:28.119168","MEAN_MOTION":15.31676115,"ECCENTRICITY":0.0017229,"INCLINATION":51.8822,"RA_OF_ASC_NODE":252.9141,"ARG_OF_PERICENTER":49.3654,"MEAN_ANOMALY":310.8826,"EPHEMERIS_TYPE":0,"CLASSIFICATION_TYPE":"U","NORAD_CAT_ID":67792,"ELEMENT_SET_NO":999,"REV_AT_EPOCH":402,"BSTAR":0.00017214,"MEAN_MOTION_DOT":4.993e-5,"MEAN_MOTION_DDOT":0},{"OBJECT_NAME":"KUIPER-00275","OBJECT_ID":"2026-030AF","EPOCH":"2026-03-02T17:50:32.859168","MEAN_MOTION":15.34388755,"ECCENTRICITY":0.0008706,"INCLINATION":51.8827,"RA_OF_ASC_NODE":252.766,"ARG_OF_PERICENTER":34.4058,"MEAN_ANOMALY":325.749,"EPHEMERIS_TYPE":0,"CLASSIFICATION_TYPE":"U","NORAD_CAT_ID":67793,"ELEMENT_SET_NO":999,"REV_AT_EPOCH":402,"BSTAR":0.00069365,"MEAN_MOTION_DOT":0.00023167,"MEAN_MOTION_DDOT":0},{"OBJECT_NAME":"KUIPER-00276","OBJECT_ID":"2026-030AG","EPOCH":"2026-03-02T18:29:56.006304","MEAN_MOTION":15.31524899,"ECCENTRICITY":0.0018295,"INCLINATION":51.8816,"RA_OF_ASC_NODE":252.9368,"ARG_OF_PERICENTER":45.8212,"MEAN_ANOMALY":314.4272,"EPHEMERIS_TYPE":0,"CLASSIFICATION_TYPE":"U","NORAD_CAT_ID":67794,"ELEMENT_SET_NO":999,"REV_AT_EPOCH":402,"BSTAR":0.00068467,"MEAN_MOTION_DOT":0.00020941,"MEAN_MOTION_DDOT":0},{"OBJECT_NAME":"KUIPER-00279","OBJECT_ID":"2026-030AH","EPOCH":"2026-03-02T17:42:27.906336","MEAN_MOTION":15.35038041,"ECCENTRICITY":0.0006148,"INCLINATION":51.8788,"RA_OF_ASC_NODE":252.7203,"ARG_OF_PERICENTER":29.8669,"MEAN_ANOMALY":330.2667,"EPHEMERIS_TYPE":0,"CLASSIFICATION_TYPE":"U","NORAD_CAT_ID":67795,"ELEMENT_SET_NO":999,"REV_AT_EPOCH":402,"BSTAR":0.00071899,"MEAN_MOTION_DOT":0.00024526,"MEAN_MOTION_DDOT":0}]
